1 29155U 06018A   12040.22971256 -.00000254  00000-0  10000-3 0  9433
2 29155 000.4199 080.7595 0002037 315.7465 110.3219 01.00268803 20955